[{"OBJECT_NAME":"ONEWEB-0375","OBJECT_ID":"2021-090Y","EPOCH":"2026-03-09T15:09:00.735264","MEAN_MOTION":13.20771291,"ECCENTRICITY":0.0001311,"INCLINATION":87.9171,"RA_OF_ASC_NODE":294.3117,"ARG_OF_PERICENTER":66.2917,"MEAN_ANOMALY":293.8354,"EPHEMERIS_TYPE":0,"CLASSIFICATION_TYPE":"U","NORAD_CAT_ID":49301,"ELEMENT_SET_NO":999,"REV_AT_EPOCH":21738,"BSTAR":-0.00021076,"MEAN_MOTION_DOT":-7.3e-7,"MEAN_MOTION_DDOT":0},{"OBJECT_NAME":"CZ-4C DEB","OBJECT_ID":"2009-072G","EPOCH":"2026-03-07T02:32:21.156288","MEAN_MOTION":13.05693235,"ECCENTRICITY":0.01348874,"INCLINATION":100.7039,"RA_OF_ASC_NODE":24.1951,"ARG_OF_PERICENTER":333.4489,"MEAN_ANOMALY":87.3103,"EPHEMERIS_TYPE":0,"CLASSIFICATION_TYPE":"U","NORAD_CAT_ID":38659,"ELEMENT_SET_NO":999,"REV_AT_EPOCH":76950,"BSTAR":0.0013369947,"MEAN_MOTION_DOT":4.11e-6,"MEAN_MOTION_DDOT":0}]
